[{"OBJECT_NAME":"STARLINK-32766","OBJECT_ID":"2025-006W","EPOCH":"2026-03-09T00:59:06.886752","MEAN_MOTION":15.27618096,"ECCENTRICITY":0.00016783,"INCLINATION":42.999,"RA_OF_ASC_NODE":296.2162,"ARG_OF_PERICENTER":258.4576,"MEAN_ANOMALY":101.6088,"EPHEMERIS_TYPE":0,"CLASSIFICATION_TYPE":"U","NORAD_CAT_ID":62574,"ELEMENT_SET_NO":999,"REV_AT_EPOCH":6476,"BSTAR":0.0010663803,"MEAN_MOTION_DOT":0.00029233,"MEAN_MOTION_DDOT":0},{"OBJECT_NAME":"CZ-6A DEB","OBJECT_ID":"2023-168D","EPOCH":"2026-03-09T19:03:52.964928","MEAN_MOTION":15.28240044,"ECCENTRICITY":0.00013417,"INCLINATION":97.7802,"RA_OF_ASC_NODE":98.3362,"ARG_OF_PERICENTER":174.0661,"MEAN_ANOMALY":186.0594,"EPHEMERIS_TYPE":0,"CLASSIFICATION_TYPE":"U","NORAD_CAT_ID":58202,"ELEMENT_SET_NO":999,"REV_AT_EPOCH":12922,"BSTAR":0.0014474773,"MEAN_MOTION_DOT":0.00039923,"MEAN_MOTION_DDOT":0}]
